ONEWEB-0160             
1 48060U 21025U   23335.45792199  .00000248  00000+0  64351-3 0  9995
2 48060  87.8976 145.0599 0000809  52.9559 307.1644 13.13569485131645
ONEWEB-0163             
1 48061U 21025V   23335.51974074 -.00000041  00000+0 -14708-3 0  9991
2 48061  87.8981 145.0419 0001782  99.9581 260.1749 13.13471112131788
ONEWEB-0159             
1 48062U 21025W   23334.51846195 -.00000246  00000+0 -70789-3 0  9991
2 48062  87.8980 145.2266 0001746  86.7549 273.3780 13.13568463131561
ONEWEB-0164             
1 48063U 21025X   23335.41482760 -.00000073  00000+0 -23628-3 0  9994
2 48063  87.8982 145.0578 0001329  96.8347 263.2933 13.13267009131675
ONEWEB-0167             
1 48064U 21025Y   23335.44440492 -.00000049  00000+0 -16762-3 0  9998
2 48064  87.8981 145.0610 0001666  96.4269 263.7050 13.13517456131652
ONEWEB-0166             
1 48065U 21025Z   23335.00894691  .00000329  00000+0  86333-3 0  9995
2 48065  87.8979 145.1388 0001678  86.4079 273.7242 13.13669429131678
ONEWEB-0151             
1 48066U 21025AA  23335.46761517  .00000312  00000+0  81661-3 0  9997
2 48066  87.8982 145.0565 0001260 101.5619 258.5652 13.13766695131685
ONEWEB-0170             
1 48067U 21025AB  23335.01823882  .00000276  00000+0  71960-3 0  9993
2 48067  87.8983 145.1459 0000797 103.9227 256.1990 13.13471551131576
